[
    {
        "CCSDS_OMM_VERS": "3.0",
        "COMMENT": "GENERATED VIA SPACE-TRACK.ORG API",
        "CREATION_DATE": "2025-03-02T18:08:23",
        "ORIGINATOR": "18 SPCS",
        "OBJECT_NAME": "NAVSTAR 73 (USA 260)",
        "OBJECT_ID": "2015-013A",
        "CENTER_NAME": "EARTH",
        "REF_FRAME": "TEME",
        "TIME_SYSTEM": "UTC",
        "MEAN_ELEMENT_THEORY": "SGP4",
        "EPOCH": "2025-03-01T21:49:09.200064",
        "MEAN_MOTION": "2.00549691",
        "ECCENTRICITY": "0.00976000",
        "INCLINATION": "53.2664",
        "RA_OF_ASC_NODE": "223.7185",
        "ARG_OF_PERICENTER": "34.4722",
        "MEAN_ANOMALY": "326.1154",
        "EPHEMERIS_TYPE": "0",
        "CLASSIFICATION_TYPE": "U",
        "NORAD_CAT_ID": "40534",
        "ELEMENT_SET_NO": "999",
        "REV_AT_EPOCH": "7235",
        "BSTAR": "0.00000000000000",
        "MEAN_MOTION_DOT": "0.00000045",
        "MEAN_MOTION_DDOT": "0.0000000000000",
        "SEMIMAJOR_AXIS": "26561.576",
        "PERIOD": "718.027",
        "APOAPSIS": "20442.682",
        "PERIAPSIS": "19924.200",
        "OBJECT_TYPE": "PAYLOAD",
        "RCS_SIZE": "LARGE",
        "COUNTRY_CODE": "US",
        "LAUNCH_DATE": "2015-03-25",
        "SITE": "AFETR",
        "DECAY_DATE": null,
        "FILE": "4657142",
        "GP_ID": "282085206",
        "TLE_LINE0": "0 NAVSTAR 73 (USA 260)",
        "TLE_LINE1": "1 40534U 15013A   25060.90913426  .00000045  00000-0  00000-0 0  9992",
        "TLE_LINE2": "2 40534  53.2664 223.7185 0097600  34.4722 326.1154  2.00549691 72351"
    }
]